[
  {
    "boundary": "national_park",
    "boundary:type": "protected_area",
    "gnis:feature_id": "1530459",
    "heritage": "1",
    "heritage:operator": "whc",
    "leisure": "nature_reserve",
    "name": "Olympic National Park",
    "name:ar": "المنتزه الأولمبي الوطني",
    "name:de": "Olympic-Nationalpark",
    "name:en": "Olympic National Park",
    "name:es": "Parque Nacional Olímpico",
    "name:fr": "Parc national Olympique",
    "name:ja": "オリンピック国立公園",
    "name:ko": "올림픽국립공원",
    "name:nl": "Olympisch Nationaal park",
    "name:ru": "Национальный парк Олимпик",
    "name:zh": "奥林匹克国家公园",
    "network": "National Parks of the United States",
    "network:wikidata": "Q34918903",
    "operator": "National Park Service",
    "operator:short": "NPS",
    "operator:type": "public",
    "operator:wikidata": "Q308439",
    "operator:wikipedia": "en:National Park Service",
    "ownership": "national",
    "protect_class": "2",
    "protected": "perpetuity",
    "protection_title": "National Park",
    "ref:whc": "151",
    "type": "boundary",
    "whc:criteria": "(vii)(ix)",
    "whc:inscription_date": "1981",
    "wikidata": "Q372093",
    "wikipedia": "en:Olympic National Park",
    "id": "relation/163769"
  },
  {
    "boundary": "national_park",
    "leisure": "nature_reserve",
    "name": "Death Valley National Park",
    "name:de": "Nationalpark Tal des Todes",
    "network": "National Parks of the United States",
    "network:wikidata": "Q34918903",
    "operator": "National Park Service",
    "operator:short": "NPS",
    "operator:type": "public",
    "operator:wikidata": "Q308439",
    "operator:wikipedia": "en:National Park Service",
    "ownership": "national",
    "protect_class": "2",
    "protected": "perpetuity",
    "protection_title": "National Park",
    "type": "boundary",
    "wikidata": "Q242111",
    "wikipedia": "en:Death Valley National Park",
    "id": "relation/174732"
  },
  {
    "boundary": "national_park",
    "gnis:feature_id": "255948",
    "leisure": "nature_reserve",
    "name": "Kings Canyon National Park",
    "name:de": "Kings-Canyon-Nationalpark",
    "name:fr": "Parc national de Kings Canyon",
    "network": "National Parks of the United States",
    "network:wikidata": "Q34918903",
    "operator": "National Park Service",
    "operator:short": "NPS",
    "operator:type": "public",
    "operator:wikidata": "Q308439",
    "ownership": "national",
    "protect_class": "2",
    "protected": "perpetuity",
    "protection_title": "National Park",
    "source": "http://science.nature.nps.gov/nrdata/index.cfm",
    "type": "boundary",
    "website": "https://www.nps.gov/seki/",
    "wikidata": "Q936623",
    "wikipedia": "en:Kings Canyon National Park",
    "id": "relation/175059"
  },
  {
    "boundary": "national_park",
    "gnis:feature_id": "266000",
    "leisure": "nature_reserve",
    "name": "Sequoia National Park",
    "name:de": "Sequoia-Nationalpark",
    "network": "National Parks of the United States",
    "network:wikidata": "Q34918903",
    "operator": "National Park Service",
    "operator:short": "NPS",
    "operator:type": "public",
    "operator:wikidata": "Q308439",
    "ownership": "national",
    "protect_class": "2",
    "protected": "perpetuity",
    "protection_title": "National Park",
    "source": "http://science.nature.nps.gov/nrdata/index.cfm",
    "type": "boundary",
    "website": "https://www.nps.gov/seki/",
    "wikidata": "Q152660",
    "wikipedia": "en:Sequoia National Park",
    "id": "relation/175060"
  },
  {
    "attribution": "US National Park Service",
    "boundary": "national_park",
    "boundary:type": "protected_area",
    "heritage": "1",
    "heritage:operator": "whc",
    "leisure": "nature_reserve",
    "name": "Grand Canyon National Park",
    "name:ku": "Parka Neteweyî ya Kanyona Mezin",
    "network": "National Parks of the United States",
    "network:wikidata": "Q34918903",
    "operator": "National Park Service",
    "operator:short": "NPS",
    "operator:type": "public",
    "operator:wikidata": "Q308439",
    "ownership": "national",
    "protect_id": "2",
    "protected": "perpetuity",
    "protection_title": "National Park",
    "ref:whc": "75",
    "type": "boundary",
    "whc:criteria": "(vii)(viii)(ix)(x)",
    "whc:inscription_date": "1979",
    "wikidata": "Q220289",
    "wikipedia": "en:Grand Canyon National Park",
    "id": "relation/183377"
  },
  {
    "boundary": "national_park",
    "gnis:feature_id": "277109",
    "leisure": "nature_reserve",
    "name": "Redwood National Park",
    "network": "National Parks of the United States",
    "network:wikidata": "Q34918903",
    "operator": "National Park Service",
    "operator:short": "NPS",
    "operator:type": "public",
    "operator:wikidata": "Q308439",
    "operator:wikipedia": "en:National Park Service",
    "ownership": "national",
    "park:type": "national_park",
    "phone": "+1-707-464-6101",
    "protect_class": "2",
    "protected": "perpetuity",
    "protection_title": "National Park",
    "type": "boundary",
    "website": "https://www.nps.gov/redw/",
    "wikidata": "Q191824",
    "wikipedia": "en:Redwood National Park",
    "id": "relation/215231"
  },
  {
    "attribution": "National Park Service",
    "boundary": "national_park",
    "boundary:type": "protected_area",
    "name": "Rocky Mountain National Park",
    "network": "National Parks of the United States",
    "network:wikidata": "Q34918903",
    "operator": "National Park Service",
    "operator:short": "NPS",
    "operator:type": "public",
    "operator:wikidata": "Q308439",
    "operator:wikipedia": "en:National Park Service",
    "ownership": "national",
    "protect_class": "2",
    "protect_id": "2",
    "protected": "perpetuity",
    "protection_title": "National Park",
    "type": "boundary",
    "website": "https://www.nps.gov/romo/",
    "wikidata": "Q777183",
    "wikipedia": "en:Rocky Mountain National Park",
    "id": "relation/390960"
  },
  {
    "attribution": "National Park Service",
    "boundary": "national_park",
    "ele": "2045",
    "gnis:feature_id": "203271",
    "leisure": "nature_reserve",
    "name": "Black Canyon of the Gunnison National Park",
    "network": "National Parks of the United States",
    "network:wikidata": "Q34918903",
    "operator": "National Park Service",
    "operator:short": "NPS",
    "operator:type": "public",
    "operator:wikidata": "Q308439",
    "ownership": "national",
    "protect_id": "2",
    "protected": "perpetuity",
    "protection_title": "National Park",
    "type": "boundary",
    "wikidata": "Q305880",
    "wikipedia": "en:Black Canyon of the Gunnison National Park",
    "id": "relation/395552"
  },
  {
    "boundary": "national_park",
    "boundary:type": "protected_area",
    "leisure": "nature_reserve",
    "name": "Glacier National Park",
    "network": "National Parks of the United States",
    "network:wikidata": "Q34918903",
    "operator": "National Park Service",
    "operator:short": "NPS",
    "operator:type": "public",
    "operator:wikidata": "Q308439",
    "ownership": "national",
    "protect_class": "2",
    "protected": "perpetuity",
    "protection_title": "National Park",
    "source": "NPS data store - 2003",
    "source:url": "http://science.nature.nps.gov/nrdata/datastore.cfm?ID=42581",
    "type": "multipolygon",
    "website": "https://www.nps.gov/glac/index.htm",
    "wikidata": "Q373567",
    "wikipedia": "en:Glacier National Park (U.S.)",
    "id": "relation/1242641"
  },
  {
    "boundary": "national_park",
    "boundary:type": "protected_area",
    "leisure": "nature_reserve",
    "name": "Crater Lake National Park",
    "network": "National Parks of the United States",
    "network:wikidata": "Q34918903",
    "operator": "National Park Service",
    "operator:short": "NPS",
    "operator:type": "public",
    "operator:wikidata": "Q308439",
    "operator:wikipedia": "en:National Park Service",
    "ownership": "national",
    "phone": "+1-541-594-3000",
    "protect_class": "2",
    "protected": "perpetuity",
    "protection_title": "National Park",
    "type": "multipolygon",
    "website": "https://www.nps.gov/crla",
    "wikidata": "Q239304",
    "wikipedia": "en:Crater Lake National Park",
    "id": "relation/1274747"
  },
  {
    "boundary": "national_park",
    "boundary:type": "protected_area",
    "ele": "210",
    "gnis:feature_id": "1066328",
    "leisure": "nature_reserve",
    "name": "Cuyahoga Valley National Park",
    "network": "National Parks of the United States",
    "network:wikidata": "Q34918903",
    "operator": "National Park Service",
    "operator:short": "NPS",
    "operator:type": "public",
    "operator:wikidata": "Q308439",
    "operator:wikipedia": "en:National Park Service",
    "ownership": "national",
    "protect_class": "2",
    "protect_id": "2",
    "protected": "perpetuity",
    "protection_title": "National Park",
    "source": "National Park Service",
    "type": "boundary",
    "website": "https://www.nps.gov/cuva/",
    "wikidata": "Q152820",
    "wikipedia": "en:Cuyahoga Valley National Park",
    "id": "relation/1286297"
  },
  {
    "boundary": "national_park",
    "boundary_type": "protected_area",
    "heritage": "2",
    "heritage:operator": "nrhp",
    "leisure": "nature_reserve",
    "name": "Mount Rainier National Park",
    "network": "National Parks of the United States",
    "network:wikidata": "Q34918903",
    "nrhp:criteria": "(A),(C)",
    "nrhp:inscription_date": "February 18, 1997",
    "nrhp:nhl": "yes",
    "operator": "National Park Service",
    "operator:short": "NPS",
    "operator:type": "public",
    "operator:wikidata": "Q308439",
    "ownership": "national",
    "protect_class": "2",
    "protected": "perpetuity",
    "protection_title": "National Park",
    "ref:nrhp": "97000344",
    "type": "boundary",
    "website": "https://www.nps.gov/mora/",
    "wikidata": "Q944329",
    "wikipedia": "en:Mount Rainier National Park",
    "id": "relation/1399219"
  },
  {
    "boundary": "national_park",
    "gnis:feature_id": "1609331",
    "heritage": "1",
    "heritage:operator": "whc",
    "leisure": "nature_reserve",
    "name": "Yellowstone National Park",
    "name:ar": "منتزه ييلوستون الوطني",
    "name:de": "Yellowstone-Nationalpark",
    "name:es": "Parque nacional de Yellowstone",
    "name:fr": "Parc national de Yellowstone",
    "name:it": "Parco nazionale di Yellowstone",
    "name:ja": "イエローストーン国立公園",
    "name:nl": "Nationaal park Yellowstone",
    "name:ru": "Йеллоустонский национальный парк",
    "name:sk": "Yellowstonský národný park",
    "name:vi": "Vườn quốc gia Yellowstone",
    "name:zh": "黄石国家公园",
    "network": "National Parks of the United States",
    "network:wikidata": "Q34918903",
    "operator": "National Park Service",
    "operator:short": "NPS",
    "operator:type": "public",
    "operator:wikidata": "Q308439",
    "operator:wikipedia": "en:National Park Service",
    "ownership": "national",
    "protect_id": "2",
    "protected": "perpetuity",
    "protection_title": "National Park",
    "ref:whc": "28",
    "source": "National Park Service",
    "source:url": "http://nrinfo.nps.gov/Reference.mvc/Profile?Code=2167750",
    "type": "multipolygon",
    "website": "https://www.nps.gov/yell/",
    "whc:criteria": "(vii)(viii)(ix)(x)",
    "whc:inscription_date": "1978",
    "wikidata": "Q351",
    "wikipedia": "en:Yellowstone National Park",
    "id": "relation/1453306"
  },
  {
    "boundary": "national_park",
    "boundary:type": "protected_area",
    "image": "https://commons.wikimedia.org/wiki/File:Willow_Flats_area_and_Teton_Range_in_Grand_Teton_National_Park.jpg",
    "leisure": "nature_reserve",
    "massgis:AGBUR": "NPS",
    "massgis:FEATURE1": "National Park NPS",
    "massgis:FEDLANP020": "7745",
    "massgis:NAME1": "Grand Teton National Park",
    "massgis:PERIMETER": "3.39446000000",
    "massgis:STATE": "WY",
    "massgis:STATE_FIPS": "56",
    "massgis:URL": "http://www.nps.gov/grte",
    "name": "Grand Teton National Park",
    "network": "National Parks of the United States",
    "network:wikidata": "Q34918903",
    "operator": "National Park Service",
    "operator:short": "NPS",
    "operator:type": "public",
    "operator:wikidata": "Q308439",
    "ownership": "national",
    "protect_class": "2",
    "protected": "perpetuity",
    "protection_title": "National Park",
    "source": "http://www.nationalatlas.gov/",
    "type": "multipolygon",
    "wikidata": "Q222695",
    "wikipedia": "en:Grand Teton National Park",
    "id": "relation/1492555"
  },
  {
    "boundary": "national_park",
    "contact:city": "Yosemite National Park",
    "contact:country": "US",
    "contact:housenumber": "PO Box 577",
    "contact:postcode": "95389",
    "contact:state": "CA",
    "gnis:feature_id": "255923",
    "heritage": "1",
    "heritage:operator": "whc",
    "leisure": "nature_reserve",
    "name": "Yosemite National Park",
    "name:de": "Yosemite Nationalpark",
    "name:tr": "Yosemite Ulusal Parkı",
    "name:zh": "优胜美地",
    "network": "National Parks of the United States",
    "network:wikidata": "Q34918903",
    "operator": "National Park Service",
    "operator:short": "NPS",
    "operator:type": "public",
    "operator:wikidata": "Q308439",
    "ownership": "national",
    "phone": "+1-602-278-8888",
    "protect_class": "2",
    "protected": "perpetuity",
    "protection_title": "National Park",
    "ref:whc": "308",
    "type": "boundary",
    "website": "https://www.nps.gov/yose/",
    "whc:criteria": "(vii)(viii)",
    "whc:inscription_date": "1984",
    "wikidata": "Q180402",
    "wikimedia_commons": "Category:Yosemite National Park",
    "wikipedia": "en:Yosemite National Park",
    "id": "relation/1643367"
  },
  {
    "boundary": "national_park",
    "ele": "198",
    "gnis:feature_id": "1616980",
    "leisure": "park",
    "name": "Isle Royale National Park",
    "name:en": "Isle Royale National Park",
    "name:fr": "Parc national de l'Isle Royale",
    "network": "National Parks of the United States",
    "network:wikidata": "Q34918903",
    "operator": "National Park Service",
    "operator:short": "NPS",
    "operator:type": "public",
    "operator:wikidata": "Q308439",
    "operator:wikipedia": "en:National Park Service",
    "ownership": "national",
    "protect_class": "2",
    "protected": "perpetuity",
    "protection_title": "National Park",
    "type": "boundary",
    "website": "https://www.nps.gov/isro/",
    "wikidata": "Q163515",
    "wikipedia": "en:Isle Royale National Park",
    "id": "relation/1870066"
  },
  {
    "boundary": "national_park",
    "boundary:type": "protected_area",
    "contact:facebook": "https://www.facebook.com/GreatSmokyMountainsNPS",
    "contact:instagram": "https://www.instagram.com/GreatSmokyNPS/",
    "contact:twitter": "https://twitter.com/GreatSmokyNPS",
    "heritage": "1",
    "heritage:operator": "whc",
    "leisure": "nature_reserve",
    "name": "Great Smoky Mountains National Park",
    "name:ar": "المنتزه الوطني لجبال غرايت سموكي العظيمة",
    "name:en": "Great Smoky Mountains National Park",
    "name:es": "Parque Nacional de Great Smoky Mountains",
    "name:fr": "Parc national des Great Smoky Mountains",
    "name:ja": "グレート・スモーキー山脈国立公園",
    "name:nl": "Nationaal park Great Smoky Mountains",
    "name:ru": "Национальный парк Грейт-Смоки-Маунтинс",
    "name:zh": "大烟雾山国家公园",
    "network": "National Parks of the United States",
    "network:wikidata": "Q34918903",
    "operator": "National Park Service",
    "operator:short": "NPS",
    "operator:type": "public",
    "operator:wikidata": "Q308439",
    "operator:wikipedia": "en:National Park Service",
    "ownership": "national",
    "phone": "+1-865-436-1200",
    "protect_class": "2",
    "protected": "perpetuity",
    "protection_title": "National Park",
    "ref:whc": "259",
    "source": "NPS",
    "type": "boundary",
    "website": "https://www.nps.gov/grsm",
    "whc:criteria": "(vii)(viii)(ix)(x)",
    "whc:inscription_date": "1983",
    "wikidata": "Q464004",
    "wikipedia": "en:Great Smoky Mountains National Park",
    "id": "relation/2131838"
  },
  {
    "boundary": "national_park",
    "boundary_type": "protected_area",
    "heritage": "1",
    "heritage:operator": "whc",
    "heritage:website": "https://whc.unesco.org/en/list/76",
    "iucn_level": "1b",
    "leisure": "nature_reserve",
    "name": "Everglades National Park",
    "name:de": "Everglades-Nationalpark",
    "name:es": "Parque Nacional de los Everglades",
    "name:fr": "Parc national des Everglades",
    "name:it": "Parco nazionale delle Everglades",
    "name:pt": "Parque Nacional Everglades",
    "name:ro": "Parcul Național Everglades",
    "network": "National Parks of the United States",
    "network:wikidata": "Q34918903",
    "operator": "National Park Service",
    "operator:short": "NPS",
    "operator:type": "public",
    "operator:wikidata": "Q308439",
    "operator:wikipedia": "en:National Park Service",
    "ownership": "national",
    "protect_class": "2",
    "protected": "perpetuity",
    "protection_title": "National Park",
    "ref:whc": "76",
    "source": "http://www.nationalatlas.gov/, remapped for license change",
    "type": "multipolygon",
    "website": "https://www.nps.gov/ever/index.htm",
    "whc:criteria": "(viii)(ix)(x)",
    "whc:inscription_date": "1979",
    "wikidata": "Q274131",
    "wikipedia": "en:Everglades National Park",
    "id": "relation/2163707"
  },
  {
    "boundary": "protected_area",
    "name": "Acadia National Park",
    "network": "National Parks of the United States",
    "network:wikidata": "Q34918903",
    "operator": "National Park Service",
    "operator:short": "NPS",
    "operator:type": "public",
    "operator:wikidata": "Q308439",
    "ownership": "national",
    "protect_class": "2",
    "protected": "perpetuity",
    "protection_title": "National Park",
    "type": "boundary",
    "wikidata": "Q337396",
    "wikipedia": "en:Acadia National Park",
    "id": "relation/2176999"
  },
  {
    "boundary": "national_park",
    "boundary:type": "protected_area",
    "leisure": "nature_reserve",
    "name": "North Cascades National Park",
    "name:de": "Nationalpark Nordkaskaden",
    "network": "National Parks of the United States",
    "network:wikidata": "Q34918903",
    "operator": "National Park Service",
    "operator:short": "NPS",
    "operator:type": "public",
    "operator:wikidata": "Q308439",
    "operator:wikipedia": "en:National Park Service",
    "ownership": "national",
    "protect_class": "2",
    "protected": "perpetuity",
    "protection_title": "National Park",
    "type": "boundary",
    "website": "https://www.nps.gov/noca/",
    "wikidata": "Q1163799",
    "wikipedia": "en:North Cascades National Park",
    "id": "relation/2421537"
  },
  {
    "alt_name": "Hawaii Volcanoes National Park",
    "boundary": "national_park",
    "leisure": "nature_reserve",
    "name": "Hawaiʻi Volcanoes National Park",
    "name:en": "Hawaiʻi Volcanoes National Park",
    "name:ja": "ハワイ火山国立公園",
    "name:ja_kana": "ハワイかざんこくりつこうえん",
    "network": "National Parks of the United States",
    "network:wikidata": "Q34918903",
    "operator": "National Park Service",
    "operator:short": "NPS",
    "operator:type": "public",
    "operator:wikidata": "Q308439",
    "ownership": "national",
    "protect_class": "2",
    "protected": "perpetuity",
    "protection_title": "National Park",
    "type": "boundary",
    "website": "https://www.nps.gov/havo/",
    "wikidata": "Q205952",
    "wikipedia": "en:Hawaiʻi Volcanoes National Park",
    "id": "relation/2819618"
  },
  {
    "boundary": "national_park",
    "ele": "270",
    "gnis:feature_id": "1614406",
    "leisure": "nature_reserve",
    "name": "Virgin Islands National Park",
    "name:de": "Nationalpark Jungferninseln",
    "name:en": "Virgin Islands National Park",
    "name:es": "Parque nacional de las Islas Vírgenes",
    "name:fr": "Parc national des îles Vierges",
    "name:it": "Parco nazionale delle Isole Vergini",
    "name:pt": "Parque Nacional das Ilhas Virgens",
    "network": "National Parks of the United States",
    "network:wikidata": "Q34918903",
    "operator": "National Park Service",
    "operator:short": "NPS",
    "operator:type": "public",
    "operator:wikidata": "Q308439",
    "ownership": "national",
    "protect_class": "2",
    "protected": "perpetuity",
    "protection_title": "National Park",
    "source": "USGS National Map - http://viewer.nationalmap.gov/viewer/",
    "type": "boundary",
    "website": "https://www.nps.gov/viis/index.htm",
    "wikidata": "Q491005",
    "wikipedia": "en:Virgin Islands National Park",
    "id": "relation/2910708"
  },
  {
    "boundary": "national_park",
    "boundary:type": "protected_area",
    "leisure": "nature_reserve",
    "name": "Wind Cave National Park",
    "network": "National Parks of the United States",
    "network:wikidata": "Q34918903",
    "operator": "National Park Service",
    "operator:short": "NPS",
    "operator:type": "public",
    "operator:wikidata": "Q308439",
    "ownership": "national",
    "protect_id": "2",
    "protected": "perpetuity",
    "protection_title": "National Park",
    "type": "multipolygon",
    "website": "https://www.nps.gov/wica/",
    "wikidata": "Q1334313",
    "wikipedia": "en:Wind Cave National Park",
    "id": "relation/2998186"
  },
  {
    "boundary": "national_park",
    "gnis:feature_id": "56796",
    "name": "Hot Springs National Park",
    "name:pl": "Park Narodowy Hot Springs",
    "network": "National Parks of the United States",
    "network:wikidata": "Q34918903",
    "operator": "National Park Service",
    "operator:short": "NPS",
    "operator:type": "public",
    "operator:wikidata": "Q308439",
    "ownership": "national",
    "protected": "perpetuity",
    "protection_title": "National Park",
    "type": "multipolygon",
    "wikidata": "Q1143416",
    "wikipedia": "en:Hot Springs National Park",
    "id": "relation/3136144"
  },
  {
    "access": "yes",
    "boundary": "national_park",
    "leisure": "nature_reserve",
    "name": "Lake Clark National Park",
    "network": "National Parks of the United States",
    "network:wikidata": "Q34918903",
    "operator": "National Park Service",
    "operator:short": "NPS",
    "operator:type": "public",
    "operator:wikidata": "Q308439",
    "operator:wikipedia": "en:National Park Service",
    "ownership": "national",
    "protect_class": "2",
    "protected": "perpetuity",
    "protection_title": "National Park",
    "source:file": "Wilderness.net, University of Montana",
    "type": "boundary",
    "website": "https://www.nps.gov/lacl/index.htm",
    "wikidata": "Q712296",
    "wikipedia": "en:Lake Clark National Park and Preserve",
    "id": "relation/3593378"
  },
  {
    "access": "yes",
    "boundary": "national_park",
    "leisure": "nature_reserve",
    "name": "Denali National Park",
    "name:az": "Denali milli parkı və qoruğu",
    "name:be": "Нацыянальны парк Дэналі",
    "name:bg": "Денали (национален парк)",
    "name:ca": "Parc i Reserva Nacional de Denali",
    "name:cs": "Národní park Denali",
    "name:da": "Denali National Park",
    "name:de": "Denali-National Park",
    "name:es": "Parque nacional y reserva Denali",
    "name:fa": "پارک ملی و منطقه حفاظت‌شده دنالی",
    "name:fi": "Denalin kansallispuisto",
    "name:fr": "Parc national et réserve de Denali",
    "name:he": "הפארק הלאומי דנאלי",
    "name:hr": "Nacionalni park Denali",
    "name:hu": "Denali Nemzeti Park",
    "name:it": "Parco nazionale di Denali",
    "name:ja": "デナリ国立公園",
    "name:ko": "디날리 국립공원",
    "name:lt": "Denalio nacionalinis parkas",
    "name:nn": "Denali nasjonalpark",
    "name:no": "Denali nasjonalpark",
    "name:pl": "Park Narodowy Denali",
    "name:pt": "Parque Nacional e Reserva de Denali",
    "name:ru": "Денали (национальный парк)",
    "name:sk": "Národný park Denali",
    "name:sv": "Denali nationalpark",
    "name:ta": "டெனாலி தேசியப் பூங்கா",
    "name:tr": "Denali Ulusal Parkı ve Koruma Bölgesi",
    "name:vi": "Vườn quốc gia và khu bảo tồn Denali",
    "name:zh": "迪納利國家公園和保留區",
    "network": "National Parks of the United States",
    "network:wikidata": "Q34918903",
    "operator": "National Park Service",
    "operator:short": "NPS",
    "operator:type": "public",
    "operator:wikidata": "Q308439",
    "operator:wikipedia": "en:National Park Service",
    "ownership": "national",
    "protect_class": "2",
    "protected": "perpetuity",
    "protection_title": "National Park",
    "source": "National Park Service",
    "type": "boundary",
    "website": "https://www.nps.gov/dena/index.htm",
    "wikidata": "Q217136",
    "wikipedia": "en:Denali National Park and Preserve",
    "id": "relation/3610473"
  },
  {
    "boundary": "national_park",
    "boundary_type": "protected_area",
    "gnis:feature_id": "1662323",
    "leisure": "nature_reserve",
    "name": "Channel Islands National Park",
    "name:de": "Nationalpark Kanalinseln",
    "network": "National Parks of the United States",
    "network:wikidata": "Q34918903",
    "operator": "National Park Service",
    "operator:short": "NPS",
    "operator:type": "public",
    "operator:website": "https://www.nps.gov/chis/index.htm",
    "operator:wikidata": "Q308439",
    "operator:wikipedia": "en:National Park Service",
    "ownership": "national",
    "protect_class": "2",
    "protected": "perpetuity",
    "protection_title": "National Park",
    "type": "boundary",
    "wikidata": "Q306193",
    "wikipedia": "en:Channel Islands National Park",
    "id": "relation/3636334"
  },
  {
    "boundary": "national_park",
    "boundary:type": "protected_area",
    "massgis:DATE_EDIT": "2007/09/20",
    "massgis:GIS_NOTES": "Lands - http://landsnet.nps.gov/tractsnet/documents/PEFO/Metadata/pefo_metadata.xml",
    "massgis:UNIT_CODE": "PEFO",
    "massgis:UNIT_NAME": "Petrified Forest",
    "massgis:UNIT_TYPE": "National Park",
    "name": "Petrified Forest National Park",
    "network": "National Parks of the United States",
    "network:wikidata": "Q34918903",
    "note": "This National Park started as a national monument in 1906 and was turned into a national park in 1962.",
    "operator": "National Park Service",
    "operator:short": "NPS",
    "operator:type": "public",
    "operator:wikidata": "Q308439",
    "ownership": "national",
    "protect_id": "2",
    "protected": "perpetuity",
    "protection_title": "National Park",
    "start_date": "1906/1962",
    "type": "multipolygon",
    "website": "https://www.nps.gov/imr/pefo/",
    "wikidata": "Q305949",
    "wikipedia": "en:Petrified Forest National Park",
    "id": "relation/4640162"
  },
  {
    "boundary": "national_park",
    "boundary:type": "protected_area",
    "ele": "2492",
    "fee": "yes",
    "gnis:feature_id": "1450197",
    "leisure": "nature_reserve",
    "name": "Bryce Canyon National Park",
    "name:he": "הפארק הלאומי ברייס קניון",
    "network": "National Parks of the United States",
    "network:wikidata": "Q34918903",
    "operator": "National Park Service",
    "operator:short": "NPS",
    "operator:type": "public",
    "operator:wikidata": "Q308439",
    "ownership": "national",
    "phone": "+1-435-834-5322",
    "protect_class": "2",
    "protected": "perpetuity",
    "protection_title": "National Park",
    "type": "multipolygon",
    "website": "https://www.nps.gov/brca",
    "wikidata": "Q219562",
    "wikimedia_commons": "Category:Bryce_Canyon_National_Park",
    "wikipedia": "en:Bryce Canyon National Park",
    "id": "relation/4716641"
  },
  {
    "boundary": "national_park",
    "leisure": "nature_reserve",
    "massgis:GIS_NOTES": "Shifted 0.04 miles",
    "massgis:UNIT_CODE": "CARE",
    "massgis:UNIT_NAME": "Capitol Reef",
    "massgis:UNIT_TYPE": "National Park",
    "name": "Capitol Reef National Park",
    "network": "National Parks of the United States",
    "network:wikidata": "Q34918903",
    "operator": "National Park Service",
    "operator:short": "NPS",
    "operator:type": "public",
    "operator:wikidata": "Q308439",
    "operator:wikipedia": "en:National Park Service",
    "ownership": "national",
    "protect_class": "2",
    "protected": "perpetuity",
    "protection_title": "National Park",
    "source": "http://science.nature.nps.gov/im/gis/index.cfm",
    "type": "boundary",
    "wikidata": "Q129902",
    "wikipedia": "en:Capitol Reef National Park",
    "id": "relation/4716642"
  },
  {
    "boundary": "national_park",
    "name": "National Park of American Samoa",
    "name:ar": "حديقة أمريكان ساموا الوطنية",
    "name:az": "Amerikan Samoası Milli Parkı",
    "name:bg": "Националният парк „Американска Самоа“",
    "name:ca": "Parc Nacional de la Samoa Americana",
    "name:ceb": "National Park of American Samoa",
    "name:cs": "Národní park Americká Samoa",
    "name:de": "Nationalpark von Amerikanisch-Samoa",
    "name:en": "National Park of American Samoa",
    "name:es": "Parque nacional de Samoa Americana",
    "name:et": "Ameerika Samoa rahvuspark",
    "name:fa": "پارک ملی آمریکن ساموا",
    "name:fi": "Amerikan Samoan kansallispuisto",
    "name:fr": "Parc national des Samoa américaines",
    "name:he": "הפארק הלאומי סמואה האמריקנית",
    "name:hr": "Nacionalni park Američka Samoa",
    "name:it": "Parco nazionale delle Samoa americane",
    "name:ja": "アメリカン・サモア国立公園",
    "name:ka": "ამერიკის სამოის ეროვნული პარკი",
    "name:ko": "아메리칸사모아 국립공원",
    "name:lt": "Amerikos Samoa nacionalinis parkas",
    "name:ml": "അമേരിക്കൻ സമോവ ദേശീയോദ്യാനം",
    "name:nl": "Nationaal park van Amerikaans-Samoa",
    "name:no": "Amerikansk Samoas nasjonalpark",
    "name:pl": "Park Narodowy Samoa Amerykańskiego",
    "name:pt": "Parque Nacional da Samoa Americana",
    "name:ru": "Национальный парк Американского Самоа",
    "name:sv": "American Samoa nationalpark",
    "name:tr": "Amerikan Samoası Ulusal Parkı",
    "name:zh": "美屬薩摩亞國家公園",
    "network": "National Parks of the United States",
    "network:wikidata": "Q34918903",
    "operator": "National Park Service",
    "operator:short": "NPS",
    "operator:type": "public",
    "operator:wikidata": "Q308439",
    "ownership": "national",
    "protect_class": "2",
    "protected": "perpetuity",
    "protection_title": "National Park",
    "source": "NPS",
    "type": "boundary",
    "wikidata": "Q843075",
    "wikipedia": "en:National Park of American Samoa",
    "id": "relation/4767792"
  },
  {
    "boundary": "national_park",
    "boundary:type": "protected_area",
    "gnis:feature_id": "1488805",
    "name": "Shenandoah National Park",
    "network": "National Parks of the United States",
    "network:wikidata": "Q34918903",
    "operator": "National Park Service",
    "operator:short": "NPS",
    "operator:type": "public",
    "operator:wikidata": "Q308439",
    "operator:wikipedia": "en:National Park Service",
    "ownership": "national",
    "protect_id": "2",
    "protected": "perpetuity",
    "protection_title": "National Park",
    "source": "USGS topographic maps",
    "type": "boundary",
    "website": "https://www.nps.gov/shen/",
    "wikidata": "Q1137401",
    "wikipedia": "en:Shenandoah National Park",
    "id": "relation/5548542"
  },
  {
    "attribution": "National Park Service",
    "boundary": "national_park",
    "boundary:type": "protected_area",
    "ele": "2590",
    "gnis:feature_id": "192558",
    "leisure": "nature_reserve",
    "name": "Great Sand Dunes National Park",
    "network": "National Parks of the United States",
    "network:wikidata": "Q34918903",
    "operator": "National Park Service",
    "operator:short": "NPS",
    "operator:type": "public",
    "operator:wikidata": "Q308439",
    "operator:wikipedia": "en:National Park Service",
    "ownership": "national",
    "protect_id": "2",
    "protected": "perpetuity",
    "protection_title": "National Park",
    "type": "boundary",
    "wikidata": "Q609097",
    "wikipedia": "en:Great Sand Dunes National Park and Preserve",
    "id": "relation/5725308"
  },
  {
    "boundary": "national_park",
    "boundary:type": "protected_area",
    "leisure": "nature_reserve",
    "name": "Badlands National Park",
    "name:lkt": "Makȟóšiča",
    "network": "National Parks of the United States",
    "network:wikidata": "Q34918903",
    "operator": "National Park Service",
    "operator:short": "NPS",
    "operator:type": "public",
    "operator:wikidata": "Q308439",
    "operator:wikipedia": "en:National Park Service",
    "ownership": "national",
    "protect_id": "2",
    "protected": "perpetuity",
    "protection_title": "National Park",
    "type": "multipolygon",
    "website": "https://www.nps.gov/badl/",
    "wikidata": "Q306216",
    "wikipedia": "en:Badlands National Park",
    "id": "relation/5731065"
  },
  {
    "boundary": "national_park",
    "boundary:type": "protected_area",
    "gnis:feature_id": "179042",
    "heritage": "1",
    "heritage:operator": "whc",
    "leisure": "nature_reserve",
    "name": "Mesa Verde National Park",
    "name:ar": "منتزه ميسا فردي الوطني",
    "name:de": "Nationalpark Mesa Verde",
    "name:en": "Mesa Verde National Park",
    "name:es": "Parque Nacional de Mesa Verde",
    "name:fr": "Parc national de Mesa Verde",
    "name:ja": "メサ･ヴェルデ国立公園",
    "name:nl": "Nationaal park Mesa Verde",
    "name:ru": "Древние индейские поселения на плато Меса-Верде",
    "name:zh": "梅萨维德印第安遗址",
    "network": "National Parks of the United States",
    "network:wikidata": "Q34918903",
    "operator": "National Park Service",
    "operator:short": "NPS",
    "operator:type": "public",
    "operator:wikidata": "Q308439",
    "operator:wikipedia": "en:National Park Service",
    "ownership": "national",
    "protect_class": "2",
    "protected": "perpetuity",
    "protection_title": "National Park",
    "ref:whc": "27",
    "type": "boundary",
    "website": "https://www.nps.gov/meve/",
    "whc:criteria": "(iii)",
    "whc:inscription_date": "1978",
    "wikidata": "Q237128",
    "wikipedia": "en:Mesa Verde National Park",
    "id": "relation/5749837"
  },
  {
    "boundary": "national_park",
    "boundary:type": "protected_area",
    "gnis:feature_id": "1455157",
    "leisure": "nature_reserve",
    "name": "Zion National Park",
    "name:s-pai": "Mukuntuweap",
    "network": "National Parks of the United States",
    "network:wikidata": "Q34918903",
    "operator": "National Park Service",
    "operator:short": "NPS",
    "operator:type": "public",
    "operator:wikidata": "Q308439",
    "operator:wikipedia": "en:National Park Service",
    "ownership": "national",
    "protect_class": "2",
    "protected": "perpetuity",
    "protection_title": "National Park",
    "type": "boundary",
    "wikidata": "Q205325",
    "wikipedia": "en:Zion National Park",
    "id": "relation/5758583"
  },
  {
    "boundary": "national_park",
    "boundary:type": "protected_area",
    "leisure": "nature_reserve",
    "name": "Saguaro National Park - Rincon Mountain District",
    "operator": "National Park Service",
    "operator:short": "NPS",
    "operator:type": "public",
    "operator:wikidata": "Q308439",
    "operator:wikipedia": "en:National Park Service",
    "ownership": "national",
    "protect_class": "2",
    "protected": "perpetuity",
    "protection_title": "National Park",
    "type": "boundary",
    "wikidata": "Q676206",
    "wikipedia": "en:Saguaro National Park",
    "id": "relation/5821126"
  },
  {
    "boundary": "national_park",
    "boundary:type": "protected_area",
    "leisure": "nature_reserve",
    "name": "Saguaro National Park - Tucson Mountain District",
    "operator": "National Park Service",
    "operator:short": "NPS",
    "operator:type": "public",
    "operator:wikidata": "Q308439",
    "operator:wikipedia": "en:National Park Service",
    "ownership": "national",
    "protect_class": "2",
    "protected": "perpetuity",
    "protection_title": "National Park",
    "type": "boundary",
    "website": "https://www.nps.gov/sagu/index.htm",
    "wikidata": "Q676206",
    "wikipedia": "en:Saguaro National Park",
    "id": "relation/5821127"
  },
  {
    "boundary": "national_park",
    "boundary:type": "protected_area",
    "gnis:feature_id": "1455716",
    "leisure": "nature_reserve",
    "name": "Arches National Park",
    "network": "National Parks of the United States",
    "network:wikidata": "Q34918903",
    "operator": "National Park Service",
    "operator:short": "NPS",
    "operator:type": "public",
    "operator:wikidata": "Q308439",
    "ownership": "national",
    "protect_class": "2",
    "protected": "perpetuity",
    "protection_title": "National Park",
    "type": "boundary",
    "wikidata": "Q223969",
    "wikipedia": "en:Arches National Park",
    "id": "relation/5868384"
  },
  {
    "boundary": "national_park",
    "boundary:type": "protected_area",
    "gnis:feature_id": "904780",
    "leisure": "nature_reserve",
    "name": "Carlsbad Caverns National Park",
    "network": "National Parks of the United States",
    "network:wikidata": "Q34918903",
    "operator": "National Park Service",
    "operator:short": "NPS",
    "operator:type": "public",
    "operator:wikidata": "Q308439",
    "ownership": "national",
    "protect_class": "2",
    "protected": "perpetuity",
    "protection_title": "National Park",
    "type": "boundary",
    "website": "https://www.nps.gov/cave/index.htm",
    "wikidata": "Q273195",
    "wikipedia": "en:Carlsbad Caverns National Park",
    "id": "relation/5953459"
  },
  {
    "boundary": "national_park",
    "boundary:type": "protected_area",
    "gnis:feature_id": "862430",
    "leisure": "nature_reserve",
    "name": "Great Basin National Park",
    "network": "National Parks of the United States",
    "network:wikidata": "Q34918903",
    "operator": "National Park Service",
    "operator:short": "NPS",
    "operator:type": "public",
    "operator:wikidata": "Q308439",
    "ownership": "national",
    "protect_class": "2",
    "protected": "perpetuity",
    "protection_title": "National Park",
    "type": "boundary",
    "wikidata": "Q1137657",
    "wikipedia": "en:Great Basin National Park",
    "id": "relation/5974781"
  },
  {
    "alt_name": "Glacier Bay National Park and Preserve",
    "boundary": "national_park",
    "name": "Glacier Bay National Park",
    "network": "National Parks of the United States",
    "network:wikidata": "Q34918903",
    "operator": "National Park Service",
    "operator:short": "NPS",
    "operator:type": "public",
    "operator:wikidata": "Q308439",
    "operator:wikipedia": "en:National Park Service",
    "ownership": "national",
    "protect_class": "2",
    "protected": "perpetuity",
    "protection_title": "National Park",
    "source": "National Park Service",
    "type": "boundary",
    "wikidata": "Q261577",
    "wikipedia": "en:Glacier Bay National Park and Preserve",
    "id": "relation/6077677"
  },
  {
    "boundary": "national_park",
    "leisure": "nature_reserve",
    "name": "Joshua Tree National Park",
    "name:de": "Joshua-Tree-Nationalpark",
    "network": "National Parks of the United States",
    "network:wikidata": "Q34918903",
    "operator": "National Park Service",
    "operator:short": "NPS",
    "operator:type": "public",
    "operator:wikidata": "Q308439",
    "ownership": "national",
    "protect_class": "2",
    "protected": "perpetuity",
    "protection_title": "National Park",
    "type": "boundary",
    "website": "https://www.nps.gov/jotr/index.htm",
    "wikidata": "Q735202",
    "wikipedia": "en:Joshua Tree National Park",
    "id": "relation/6145614"
  },
  {
    "boundary": "national_park",
    "gnis:feature_id": "247533",
    "leisure": "nature_reserve",
    "name": "Pinnacles National Park",
    "network": "National Parks of the United States",
    "network:wikidata": "Q34918903",
    "operator": "National Park Service",
    "operator:short": "NPS",
    "operator:type": "public",
    "operator:wikidata": "Q308439",
    "ownership": "national",
    "protect_class": "2",
    "protected": "perpetuity",
    "protection_title": "National Park",
    "type": "boundary",
    "website": "https://www.nps.gov/pinn/",
    "wikidata": "Q1783768",
    "wikipedia": "en:Pinnacles National Park",
    "id": "relation/6183160"
  },
  {
    "boundary": "national_park",
    "leisure": "nature_reserve",
    "name": "Lassen Volcanic National Park",
    "network": "National Parks of the United States",
    "network:wikidata": "Q34918903",
    "operator": "National Park Service",
    "operator:short": "NPS",
    "operator:type": "public",
    "operator:wikidata": "Q308439",
    "ownership": "national",
    "protect_class": "2",
    "protected": "perpetuity",
    "protection_title": "National Park",
    "type": "boundary",
    "website": "https://www.nps.gov/lavo/index.htm",
    "wikidata": "Q1163542",
    "wikipedia": "en:Lassen Volcanic National Park",
    "id": "relation/6207158"
  },
  {
    "boundary": "national_park",
    "name": "Indiana Dunes National Park",
    "name:en": "Indiana Dunes National Park",
    "network": "National Parks of the United States",
    "network:wikidata": "Q34918903",
    "operator": "National Park Service",
    "operator:short": "NPS",
    "operator:type": "public",
    "operator:wikidata": "Q308439",
    "operator:wikipedia": "en:National Park Service",
    "ownership": "national",
    "protected": "perpetuity",
    "protection_title": "National Park",
    "short_name": "Indiana Dunes",
    "type": "multipolygon",
    "wikidata": "Q6023179",
    "wikipedia": "en:Indiana Dunes National Park",
    "id": "relation/6414018"
  },
  {
    "boundary": "national_park",
    "leisure": "nature_reserve",
    "name": "Wrangell-Saint Elias National Park",
    "name:es": "Parque Nacional Wrangell-San Elías",
    "network": "National Parks of the United States",
    "network:wikidata": "Q34918903",
    "operator": "National Park Service",
    "operator:es": "Servicio de Parques Nacionales de los Estados Unidos",
    "operator:short": "NPS",
    "operator:type": "public",
    "operator:wikidata": "Q308439",
    "ownership": "national",
    "protect_class": "2",
    "protected": "perpetuity",
    "protection_title": "National Park",
    "source": "NPS shapefile - https://irma.nps.gov/App/Portal/Home",
    "type": "boundary",
    "wikidata": "Q748597",
    "wikipedia": "en:Wrangell–St. Elias National Park and Preserve",
    "id": "relation/6561033"
  },
  {
    "boundary": "national_park",
    "leisure": "nature_reserve",
    "name": "Gates of the Arctic National Park",
    "network": "National Parks of the United States",
    "network:wikidata": "Q34918903",
    "operator": "National Park Service",
    "operator:short": "NPS",
    "operator:type": "public",
    "operator:wikidata": "Q308439",
    "ownership": "national",
    "protect_class": "2",
    "protected": "perpetuity",
    "protection_title": "National Park",
    "type": "boundary",
    "website": "https://www.nps.gov/gaar/",
    "wikidata": "Q605657",
    "wikipedia": "en:Gates of the Arctic National Park and Preserve",
    "id": "relation/7025660"
  },
  {
    "boundary": "national_park",
    "leisure": "nature_reserve",
    "name": "Kobuk Valley National Park",
    "network": "National Parks of the United States",
    "network:wikidata": "Q34918903",
    "note": "boundary is approximate",
    "operator": "National Park Service",
    "operator:short": "NPS",
    "operator:type": "public",
    "operator:wikidata": "Q308439",
    "ownership": "national",
    "protected": "perpetuity",
    "protection_title": "National Park",
    "source:boundary": "USGS Topo;existing boundaries of parks north and south",
    "type": "boundary",
    "wikidata": "Q836264",
    "wikipedia": "en:Kobuk Valley National Park",
    "id": "relation/7058636"
  },
  {
    "boundary": "national_park",
    "boundary:type": "protected_area",
    "name": "Haleakalā National Park",
    "name:en": "Haleakalā National Park",
    "name:haw": "Pāka Aupuni ʻo Haleakalā",
    "name:ru": "Национальный парк Халеакала",
    "network": "National Parks of the United States",
    "network:wikidata": "Q34918903",
    "operator": "National Park Service",
    "operator:short": "NPS",
    "operator:type": "public",
    "operator:wikidata": "Q308439",
    "ownership": "national",
    "protected": "perpetuity",
    "protection_title": "National Park",
    "type": "multipolygon",
    "wikidata": "Q1137640",
    "wikipedia": "en:Haleakalā National Park",
    "id": "relation/8174174"
  },
  {
    "boundary": "national_park",
    "leisure": "nature_reserve",
    "name": "Katmai National Park",
    "name:de": "Katmai-Nationalpark",
    "network": "National Parks of the United States",
    "network:wikidata": "Q34918903",
    "operator": "National Park Service",
    "operator:short": "NPS",
    "operator:type": "public",
    "operator:wikidata": "Q308439",
    "ownership": "national",
    "protect_class": "2",
    "protected": "perpetuity",
    "protection_title": "National Park",
    "type": "boundary",
    "website": "https://www.nps.gov/katm/index.htm",
    "wikidata": "Q609902",
    "wikipedia": "en:Katmai National Park and Preserve",
    "id": "relation/9090352"
  },
  {
    "boundary": "national_park",
    "leisure": "nature_reserve",
    "name": "Biscayne National Park",
    "name:de": "Biscayne-Nationalpark",
    "name:en": "Biscayne National Park",
    "network": "National Parks of the United States",
    "network:wikidata": "Q34918903",
    "operator": "National Park Service",
    "operator:short": "NPS",
    "operator:type": "public",
    "operator:wikidata": "Q308439",
    "operator:wikipedia": "en:National Park Service",
    "ownership": "national",
    "protect_class": "2",
    "protected": "perpetuity",
    "protection_title": "National Park",
    "start_date": "1980-06-28",
    "type": "multipolygon",
    "wikidata": "Q866080",
    "wikipedia": "en:Biscayne National Park",
    "id": "relation/9107419"
  },
  {
    "boundary": "national_park",
    "boundary:type": "protected_area",
    "name": "Saguaro National Park",
    "network": "National Parks of the United States",
    "network:wikidata": "Q34918903",
    "operator": "National Park Service",
    "operator:short": "NPS",
    "operator:type": "public",
    "operator:wikidata": "Q308439",
    "operator:wikipedia": "en:National Park Service",
    "ownership": "national",
    "phone": "+1-520-733-5153",
    "protect_class": "2",
    "protected": "perpetuity",
    "protection_title": "National Park",
    "type": "multipolygon",
    "website": "https://www.nps.gov/sagu/",
    "wikidata": "Q676206",
    "wikipedia": "en:Saguaro National Park",
    "id": "relation/9529323"
  },
  {
    "access": "yes",
    "alt_name": "Kenai Fiords National Park",
    "boundary": "national_park",
    "boundary:type": "protected_area",
    "fee": "no",
    "leisure": "nature_reserve",
    "name": "Kenai Fjords National Park",
    "network": "National Parks of the United States",
    "network:wikidata": "Q34918903",
    "operator": "National Park Service",
    "operator:short": "NPS",
    "operator:type": "public",
    "operator:wikidata": "Q308439",
    "operator:wikipedia": "en:National Park Service",
    "ownership": "national",
    "phone": "+1-907-422-0500",
    "protect_class": "2",
    "protected": "perpetuity",
    "protection_title": "National Park",
    "type": "boundary",
    "website": "https://www.nps.gov/kefj/",
    "wikidata": "Q841503",
    "wikipedia": "en:Kenai Fjords National Park",
    "id": "relation/9563873"
  },
  {
    "area": "yes",
    "boundary": "national_park",
    "ele": "140",
    "gnis:feature_id": "507318",
    "heritage": "1",
    "heritage:operator": "whc",
    "leisure": "nature_reserve",
    "name": "Mammoth Cave National Park",
    "name:ar": "منتزه كهف ماموت الوطني",
    "name:en": "Mammoth Cave National Park",
    "name:es": "Parque Nacional de Mammoth Cave",
    "name:fr": "Parc national de Mammoth Cave",
    "name:ja": "マンモス・ケーヴ国立公園",
    "name:nl": "Nationaal park Mammoth Cave",
    "name:ru": "Национальный парк Мамонтова пещера",
    "name:zh": "猛玛洞穴国家公园",
    "network": "National Parks of the United States",
    "network:wikidata": "Q34918903",
    "operator": "National Park Service",
    "operator:short": "NPS",
    "operator:type": "public",
    "operator:wikidata": "Q308439",
    "ownership": "national",
    "protect_class": "2",
    "protected": "perpetuity",
    "protection_title": "National Park",
    "ref:whc": "150",
    "source": "NPS shapefile - https://irma.nps.gov/App/",
    "type": "boundary",
    "website": "https://www.nps.gov/maca/",
    "whc:criteria": "(vii)(viii)(x)",
    "whc:inscription_date": "1981",
    "wikidata": "Q242681",
    "wikipedia": "en:Mammoth Cave National Park",
    "id": "relation/9615817"
  },
  {
    "boundary": "national_park",
    "boundary:type": "protected_area",
    "fixme": "Northwest Corner of Park Boundary (Rainy Lake) needs to be updated/expanded",
    "leisure": "nature_reserve",
    "name": "Voyageurs National Park",
    "network": "National Parks of the United States",
    "network:wikidata": "Q34918903",
    "operator": "National Park Service",
    "operator:short": "NPS",
    "operator:type": "public",
    "operator:wikidata": "Q308439",
    "operator:wikipedia": "en:National Park Service",
    "ownership": "national",
    "protect_class": "2",
    "protected": "perpetuity",
    "protection_title": "National Park",
    "type": "multipolygon",
    "website": "https://www.nps.gov/voya",
    "wikidata": "Q1368788",
    "wikipedia": "en:Voyageurs National Park",
    "id": "relation/11116441"
  },
  {
    "boundary": "national_park",
    "heritage:website": "https://www.skagway.com/things-to-do/attractions-tours/klondike-gold-rush-national-historical-park/",
    "leisure": "nature_reserve",
    "name": "Klondike Gold Rush National Historical Park",
    "operator": "National Park Service",
    "operator:short": "NPS",
    "operator:type": "public",
    "operator:wikidata": "Q308439",
    "operator:wikipedia": "en:National Park Service",
    "ownership": "national",
    "protect_class": "5",
    "protected": "perpetuity",
    "protection_title": "National Park",
    "type": "multipolygon",
    "website": "https://www.nps.gov/klgo/index.htm",
    "wikidata": "Q1774856",
    "wikipedia": "en:Klondike Gold Rush National Historical Park",
    "id": "relation/12206692"
  },
  {
    "access": "yes",
    "addr:city": "Saint Louis",
    "addr:postcode": "63102",
    "addr:state": "MO",
    "boundary": "national_park",
    "boundary_type": "protected_area",
    "check_date": "2024-03-24",
    "description": "Gateway Arch National Park is an American national park located in St. Louis, Missouri, near the starting point of the Lewis and Clark Expedition.",
    "ele": "121",
    "gnis:feature_id": "765817",
    "leisure": "park",
    "name": "Gateway Arch National Park",
    "network": "National Parks of the United States",
    "network:wikidata": "Q34918903",
    "old_name": "Jefferson National Expansion Memorial",
    "operator": "National Park Service",
    "operator:short": "NPS",
    "operator:type": "public",
    "operator:wikidata": "Q308439",
    "operator:wikipedia": "en:National Park Service",
    "ownership": "national",
    "protected": "perpetuity",
    "protection_title": "National Park",
    "start_date": "1935-12-21",
    "type": "multipolygon",
    "website": "https://www.nps.gov/jeff",
    "wikidata": "Q45234",
    "wikipedia": "en:Gateway Arch National Park",
    "id": "relation/12627717"
  },
  {
    "boundary": "national_park",
    "name": "Congaree National Park",
    "network": "National Parks of the United States",
    "network:wikidata": "Q34918903",
    "note": "This is the \"proclamation boundary\" of the national park, and includes \"inholdings\" that are under private ownership and are not open to the public. It denotes where the NPS is authorized by law to acquire property to add to the park.",
    "operator": "National Park Service",
    "operator:short": "NPS",
    "operator:type": "public",
    "operator:wikidata": "Q308439",
    "operator:wikipedia": "en:National Park Service",
    "ownership": "national",
    "protected": "perpetuity",
    "protection_title": "National Park",
    "source": "Purcell A. 2022. Congaree National Park Tract and Boundary Data. National Park Service (NPS), Chief Cartographer, Land Resources Division, WASO Fort Collins Land Resources Program Center. https://irma.nps.gov/DataStore/Reference/Profile/2299943",
    "source:version": "20220607",
    "type": "boundary",
    "website": "https://www.nps.gov/cong/",
    "wikidata": "Q175688",
    "wikipedia": "en:Congaree National Park",
    "id": "relation/12627729"
  },
  {
    "boundary": "national_park",
    "gnis:feature_id": "1033824",
    "name": "Theodore Roosevelt National Park",
    "network": "National Parks of the United States",
    "network:wikidata": "Q34918903",
    "operator": "National Park Service",
    "operator:short": "NPS",
    "operator:type": "public",
    "operator:wikidata": "Q308439",
    "operator:wikipedia": "en:National Park Service",
    "ownership": "national",
    "protect_class": "2",
    "protected": "perpetuity",
    "protection_title": "National Park",
    "type": "boundary",
    "website": "https://www.nps.gov/thro/",
    "wikidata": "Q1137669",
    "wikipedia": "en:Theodore Roosevelt National Park",
    "id": "relation/13235948"
  },
  {
    "boundary": "national_park",
    "name": "Canyonlands National Park",
    "network": "National Parks of the United States",
    "network:wikidata": "Q34918903",
    "operator": "National Park Service",
    "operator:short": "NPS",
    "operator:type": "public",
    "operator:wikidata": "Q308439",
    "ownership": "national",
    "protect_class": "2",
    "protected": "perpetuity",
    "protection_title": "National Park",
    "type": "boundary",
    "wikidata": "Q541856",
    "wikipedia": "en:Canyonlands National Park",
    "id": "relation/13624591"
  },
  {
    "boundary": "national_park",
    "name": "Big Bend National Park",
    "network": "National Parks of the United States",
    "network:wikidata": "Q34918903",
    "operator": "National Park Service",
    "operator:short": "NPS",
    "operator:type": "public",
    "operator:wikidata": "Q308439",
    "ownership": "national",
    "protect_class": "2",
    "protected": "perpetuity",
    "protection_title": "National Park",
    "type": "boundary",
    "wikidata": "Q1427197",
    "wikipedia": "en:Big Bend National Park",
    "id": "relation/16056592"
  },
  {
    "addr:city": "Salt Flat",
    "addr:housenumber": "400",
    "addr:postcode": "79847",
    "addr:state": "TX",
    "addr:street": "Pine Canyon",
    "boundary": "national_park",
    "name": "Guadalupe Mountains National Park",
    "network": "National Parks of the United States",
    "network:wikidata": "Q34918903",
    "operator": "National Park Service",
    "operator:short": "NPS",
    "operator:type": "public",
    "operator:wikidata": "Q308439",
    "ownership": "national",
    "phone": "+1-915-828-3251",
    "protected": "perpetuity",
    "protection_title": "National Park",
    "start_date": "1972-09-30",
    "type": "boundary",
    "website": "https://www.nps.gov/gumo/index.htm",
    "wikidata": "Q370501",
    "wikipedia": "en:Guadalupe Mountains National Park",
    "id": "relation/16101717"
  },
  {
    "boundary": "protected_area",
    "ownership": "national",
    "protect_class": "2",
    "protected": "perpetuity",
    "protection_title": "National Park",
    "source": "Purcell A. 2022. Congaree National Park Tract and Boundary Data. National Park Service (NPS), Chief Cartographer, Land Resources Division, WASO Fort Collins Land Resources Program Center. https://irma.nps.gov/DataStore/Reference/Profile/2299943",
    "source:version": "20220607",
    "type": "boundary",
    "id": "relation/16486568"
  },
  {
    "boundary": "national_park",
    "contact:country": "US",
    "contact:state": "NM",
    "leisure": "nature_reserve",
    "name": "White Sands National Park",
    "network": "National Parks of the United States",
    "network:wikidata": "Q34918903",
    "operator": "National Park Service",
    "operator:short": "NPS",
    "operator:type": "public",
    "operator:wikidata": "Q308439",
    "ownership": "national",
    "protect_class": "5",
    "protected": "perpetuity",
    "protection_title": "National Park",
    "type": "multipolygon",
    "website": "https://www.nps.gov/whsa/index.htm",
    "wikidata": "Q1200164",
    "wikipedia": "en:White Sands National Park",
    "id": "relation/18288647"
  },
  {
    "boundary": "protected_area",
    "hunting": "no",
    "leisure": "nature_reserve",
    "name": "New River Gorge National Park",
    "network": "National Parks of the United States",
    "network:wikidata": "Q34918903",
    "operator": "National Park Service",
    "operator:short": "NPS",
    "operator:type": "public",
    "operator:wikidata": "Q308439",
    "ownership": "national",
    "protect_class": "2",
    "protected": "perpetuity",
    "protection_title": "National Park",
    "source": "https://www.energy.senate.gov/services/files/1BCCAB5A-4B07-49D9-AA2D-525E84458195",
    "type": "boundary",
    "website": "https://www.nps.gov/neri/",
    "wikidata": "Q131274238",
    "id": "relation/18298779"
  }
]
